[
    {
        "Altitude(m)": 604969.0890501112,
        "Argument of Periapsis(deg)": 0.0,
        "Eccentricity": 0.0,
        "Inclination(deg)": 60.0,
        "Latitude(deg)": -0.09258869175038419,
        "Longitude(deg)": 34.977527771884326,
        "Mean Anomaly(deg)": 0.0,
        "RAAN(deg)": 135.0,
        "Satellite Name": "Test1 594",
        "Satellite Number": 594,
        "Semi-Major Axis(m)": 6980739.136638005,
        "Time(s)": 0
    },
    {
        "Altitude(m)": 604900.0290524681,
        "Argument of Periapsis(deg)": 0.00010418945913296404,
        "Eccentricity": 0.0,
        "Inclination(deg)": 60.0,
        "Latitude(deg)": 0.44783769194473894,
        "Longitude(deg)": 35.245649829561486,
        "Mean Anomaly(deg)": 0.6201061454618275,
        "RAAN(deg)": 134.99957995086024,
        "Satellite Name": "Test1 594",
        "Satellite Number": 594,
        "Semi-Major Axis(m)": 6980739.136638005,
        "Time(s)": 10
    },
    {
        "Altitude(m)": 604834.1971292975,
        "Argument of Periapsis(deg)": 0.0002083789182659281,
        "Eccentricity": 0.0,
        "Inclination(deg)": 60.0,
        "Latitude(deg)": 0.9882608480664818,
        "Longitude(deg)": 35.513823304493435,
        "Mean Anomaly(deg)": 1.240212290923655,
        "RAAN(deg)": 134.99915990172053,
        "Satellite Name": "Test1 594",
        "Satellite Number": 594,
        "Semi-Major Axis(m)": 6980739.136638005,
        "Time(s)": 20
    },
    {
        "Altitude(m)": 604771.5996593786,
        "Argument of Periapsis(deg)": 0.00031256837739889213,
        "Eccentricity": 0.0,
        "Inclination(deg)": 60.0,
        "Latitude(deg)": 1.5286636906741897,
        "Longitude(deg)": 35.782102585973654,
        "Mean Anomaly(deg)": 1.8603184363854828,
        "RAAN(deg)": 134.99873985258077,
        "Satellite Name": "Test1 594",
        "Satellite Number": 594,
        "Semi-Major Axis(m)": 6980739.136638005,
        "Time(s)": 30
    },
    {
        "Altitude(m)": 604712.2414915932,
        "Argument of Periapsis(deg)": 0.0004167578365318562,
        "Eccentricity": 0.0,
        "Inclination(deg)": 60.0,
        "Latitude(deg)": 2.0690291123652043,
        "Longitude(deg)": 36.0505426318409,
        "Mean Anomaly(deg)": 2.48042458184731,
        "RAAN(deg)": 134.99831980344103,
        "Satellite Name": "Test1 594",
        "Satellite Number": 594,
        "Semi-Major Axis(m)": 6980739.136638005,
        "Time(s)": 40
    },
    {
        "Altitude(m)": 604656.125945371,
        "Argument of Periapsis(deg)": 0.0005209472956648203,
        "Eccentricity": 0.0,
        "Inclination(deg)": 60.0,
        "Latitude(deg)": 2.6093399743621437,
        "Longitude(deg)": 36.31919799191423,
        "Mean Anomaly(deg)": 3.1005307273091636,
        "RAAN(deg)": 134.99789975430127,
        "Satellite Name": "Test1 594",
        "Satellite Number": 594,
        "Semi-Major Axis(m)": 6980739.136638005,
        "Time(s)": 50
    },
    {
        "Altitude(m)": 604603.2548118795,
        "Argument of Periapsis(deg)": 0.0006251367547977843,
        "Eccentricity": 0.0,
        "Inclination(deg)": 60.0,
        "Latitude(deg)": 3.149579096562713,
        "Longitude(deg)": 36.58812334439036,
        "Mean Anomaly(deg)": 3.720636872770991,
        "RAAN(deg)": 134.99747970516157,
        "Satellite Name": "Test1 594",
        "Satellite Number": 594,
        "Semi-Major Axis(m)": 6980739.136638005,
        "Time(s)": 60
    },
    {
        "Altitude(m)": 604553.6283559867,
        "Argument of Periapsis(deg)": 0.0007293262139307483,
        "Eccentricity": 0.0,
        "Inclination(deg)": 60.0,
        "Latitude(deg)": 3.6897292475364947,
        "Longitude(deg)": 36.8573740323588,
        "Mean Anomaly(deg)": 4.340743018232819,
        "RAAN(deg)": 134.9970596560218,
        "Satellite Name": "Test1 594",
        "Satellite Number": 594,
        "Semi-Major Axis(m)": 6980739.136638005,
        "Time(s)": 70
    },
    {
        "Altitude(m)": 604507.2453189659,
        "Argument of Periapsis(deg)": 0.0008335156730637124,
        "Eccentricity": 0.0,
        "Inclination(deg)": 60.0,
        "Latitude(deg)": 4.229773134452346,
        "Longitude(deg)": 37.12700508759133,
        "Mean Anomaly(deg)": 4.960849163694646,
        "RAAN(deg)": 134.99663960688207,
        "Satellite Name": "Test1 594",
        "Satellite Number": 594,
        "Semi-Major Axis(m)": 6980739.136638005,
        "Time(s)": 80
    },
    {
        "Altitude(m)": 604464.102921932,
        "Argument of Periapsis(deg)": 0.0009377051321966765,
        "Eccentricity": 0.0,
        "Inclination(deg)": 60.0,
        "Latitude(deg)": 4.769693392928024,
        "Longitude(deg)": 37.397071767379394,
        "Mean Anomaly(deg)": 5.580955309156474,
        "RAAN(deg)": 134.9962195577423,
        "Satellite Name": "Test1 594",
        "Satellite Number": 594,
        "Semi-Major Axis(m)": 6980739.136638005,
        "Time(s)": 90
    },
    {
        "Altitude(m)": 604424.1968700647,
        "Argument of Periapsis(deg)": 0.0010418945913296407,
        "Eccentricity": 0.0,
        "Inclination(deg)": 60.0,
        "Latitude(deg)": 5.309472576785668,
        "Longitude(deg)": 37.66763009157798,
        "Mean Anomaly(deg)": 6.2010614546183005,
        "RAAN(deg)": 134.9957995086026,
        "Satellite Name": "Test1 594",
        "Satellite Number": 594,
        "Semi-Major Axis(m)": 6980739.136638005,
        "Time(s)": 100
    },
    {
        "Altitude(m)": 604387.5213575448,
        "Argument of Periapsis(deg)": 0.0011460840504626045,
        "Eccentricity": 0.0,
        "Inclination(deg)": 60.0,
        "Latitude(deg)": 5.849093147696927,
        "Longitude(deg)": 37.93873586700862,
        "Mean Anomaly(deg)": 6.821167600080129,
        "RAAN(deg)": 134.9953794594628,
        "Satellite Name": "Test1 594",
        "Satellite Number": 594,
        "Semi-Major Axis(m)": 6980739.136638005,
        "Time(s)": 110
    },
    {
        "Altitude(m)": 604354.0690732189,
        "Argument of Periapsis(deg)": 0.0012502735095955685,
        "Eccentricity": 0.0,
        "Inclination(deg)": 60.0,
        "Latitude(deg)": 6.388537464708485,
        "Longitude(deg)": 38.21044522499999,
        "Mean Anomaly(deg)": 7.441273745541956,
        "RAAN(deg)": 134.99495941032308,
        "Satellite Name": "Test1 594",
        "Satellite Number": 594,
        "Semi-Major Axis(m)": 6980739.136638005,
        "Time(s)": 120
    },
    {
        "Altitude(m)": 604323.8312070792,
        "Argument of Periapsis(deg)": 0.0013544629687285324,
        "Eccentricity": 0.0,
        "Inclination(deg)": 60.0,
        "Latitude(deg)": 6.927787773631254,
        "Longitude(deg)": 38.48281515922019,
        "Mean Anomaly(deg)": 8.061379891003783,
        "RAAN(deg)": 134.99453936118334,
        "Satellite Name": "Test1 594",
        "Satellite Number": 594,
        "Semi-Major Axis(m)": 6980739.136638005,
        "Time(s)": 130
    },
    {
        "Altitude(m)": 604296.7974573739,
        "Argument of Periapsis(deg)": 0.0014586524278614966,
        "Eccentricity": 0.0,
        "Inclination(deg)": 60.0,
        "Latitude(deg)": 7.466826196276524,
        "Longitude(deg)": 38.7559025509578,
        "Mean Anomaly(deg)": 8.681486036465637,
        "RAAN(deg)": 134.9941193120436,
        "Satellite Name": "Test1 594",
        "Satellite Number": 594,
        "Semi-Major Axis(m)": 6980739.136638005,
        "Time(s)": 140
    },
    {
        "Altitude(m)": 604272.9560385171,
        "Argument of Periapsis(deg)": 0.0015628418869944607,
        "Eccentricity": 0.0,
        "Inclination(deg)": 60.0,
        "Latitude(deg)": 8.00563471952893,
        "Longitude(deg)": 39.02976470762733,
        "Mean Anomaly(deg)": 9.301592181927465,
        "RAAN(deg)": 134.99369926290385,
        "Satellite Name": "Test1 594",
        "Satellite Number": 594,
        "Semi-Major Axis(m)": 6980739.136638005,
        "Time(s)": 150
    },
    {
        "Altitude(m)": 604252.293689717,
        "Argument of Periapsis(deg)": 0.0016670313461274247,
        "Eccentricity": 0.0,
        "Inclination(deg)": 60.0,
        "Latitude(deg)": 8.544195184239213,
        "Longitude(deg)": 39.304459901655406,
        "Mean Anomaly(deg)": 9.921698327389292,
        "RAAN(deg)": 134.9932792137641,
        "Satellite Name": "Test1 594",
        "Satellite Number": 594,
        "Semi-Major Axis(m)": 6980739.136638005,
        "Time(s)": 160
    },
    {
        "Altitude(m)": 604234.7956843114,
        "Argument of Periapsis(deg)": 0.0017712208052603888,
        "Eccentricity": 0.0,
        "Inclination(deg)": 60.0,
        "Latitude(deg)": 9.082489273918766,
        "Longitude(deg)": 39.580046396903526,
        "Mean Anomaly(deg)": 10.541804472851119,
        "RAAN(deg)": 134.99285916462438,
        "Satellite Name": "Test1 594",
        "Satellite Number": 594,
        "Semi-Major Axis(m)": 6980739.136638005,
        "Time(s)": 170
    },
    {
        "Altitude(m)": 604220.4458398066,
        "Argument of Periapsis(deg)": 0.001875410264393353,
        "Eccentricity": 0.0,
        "Inclination(deg)": 60.0,
        "Latitude(deg)": 9.620498503225505,
        "Longitude(deg)": 39.856582988404305,
        "Mean Anomaly(deg)": 11.161910618312948,
        "RAAN(deg)": 134.99243911548464,
        "Satellite Name": "Test1 594",
        "Satellite Number": 594,
        "Semi-Major Axis(m)": 6980739.136638005,
        "Time(s)": 180
    },
    {
        "Altitude(m)": 604209.2265286598,
        "Argument of Periapsis(deg)": 0.0019795997235263173,
        "Eccentricity": 0.0,
        "Inclination(deg)": 60.0,
        "Latitude(deg)": 10.158204206222605,
        "Longitude(deg)": 40.13412954256725,
        "Mean Anomaly(deg)": 11.782016763774774,
        "RAAN(deg)": 134.99201906634488,
        "Satellite Name": "Test1 594",
        "Satellite Number": 594,
        "Semi-Major Axis(m)": 6980739.136638005,
        "Time(s)": 190
    }
]